COSMOS 2506             
1 40699U 15029A   26197.61560038  .00000163  00000+0  48404-4 0  9992
2 40699  98.0446 237.3256 0008596  67.5880 292.6227 14.54395758587169
GAOFEN-8                
1 40701U 15030A   26197.59314917  .00015358  00000+0  30560-3 0  9993
2 40701  97.6887  32.7498 0009960  91.4441 268.7949 15.46980913615990
DMC3-FM1                
1 40715U 15032A   26197.63614243  .00000033  00000+0  97536-5 0  9992
2 40715  97.6423  61.6507 0004761 331.6359  28.4597 14.85766820594283
DMC3-FM2                
1 40716U 15032B   26197.59072524  .00000691  00000+0  85420-4 0  9996
2 40716  97.6477  63.2011 0005360 337.4483  22.6496 14.85776178594279
DMC3-FM3                
1 40717U 15032C   26197.61426362  .00000029  00000+0  92156-5 0  9993
2 40717  97.6530  64.9955 0004652 340.2705  19.8330 14.85764066594286
CARBONITE 1 (CBNT-1)    
1 40718U 15032D   26197.58796853  .00001190  00000+0  15005-3 0  9991
2 40718  97.6515  14.4260 0014004 192.2553 167.8323 14.83671172593702
NAVSTAR 74 (USA 262)    
1 40730U 15033A   26196.14254142 -.00000002  00000+0  00000+0 0  9994
2 40730  53.9612 265.9327 0115357  30.2860 330.4577  2.00554681 80555
METEOSAT-11 (MSG-4)     
1 40732U 15034A   26197.27173635  .00000049  00000+0  00000+0 0  9999
2 40732   3.2716  70.9243 0002144 354.4417 335.8161  1.00272196  7508
STAR ONE C4             
1 40733U 15034B   26197.25604961 -.00000275  00000+0  00000+0 0  9991
2 40733   0.0315 327.3177 0001328 131.4588 217.4651  1.00268947 40302
WGS F7 (USA 263)        
1 40746U 15036A   26197.58308424  .00000007  00000+0  00000+0 0  9990
2 40746   0.0166  44.3739 0000185 112.6781 162.2646  1.00272243 40165
BEIDOU-3S M2S           
1 40748U 15037A   26197.31868135 -.00000074  00000+0  00000+0 0  9999
2 40748  54.8432 301.0435 0009439 256.7967 103.1329  1.86231912 74669
BEIDOU-3S M1S           
1 40749U 15037B   26196.98562833 -.00000072  00000+0  00000+0 0  9996
2 40749  54.8399 301.0417 0002740  63.1715 296.8904  1.86254817 74669
INTELSAT 34 (IS-34)     
1 40874U 15039A   26197.47128135 -.00000296  00000+0  00000+0 0  9993
2 40874   0.0105  22.5959 0000386 348.7753  37.0898  1.00269366 39928
EUTELSAT 8 WEST B       
1 40875U 15039B   26197.41091903 -.00000076  00000+0  00000+0 0  9996
2 40875   0.0635 351.1473 0003779 118.6744 324.3560  1.00271879 39955
YAOGAN-27               
1 40878U 15040A   26197.60064424 -.00000193  00000+0 -39597-3 0  9998
2 40878 100.1168 182.7091 0008555 142.0196 218.1522 13.16071967521538
GSAT-6                  
1 40880U 15041A   26197.62274021 -.00000172  00000+0  00000+0 0  9999
2 40880   1.9925  82.2242 0002990  29.9274 128.9928  1.00272997 39896
INMARSAT 5-F3           
1 40882U 15042A   26197.57753206  .00000039  00000+0  00000+0 0  9994
2 40882   0.0185  45.4787 0000543 136.4673 139.9538  1.00270763 39865
MUOS-4                  
1 40887U 15044A   26197.61364163 -.00000104  00000+0  00000+0 0  9990
2 40887   4.3841  42.4034 0056508   3.5106 184.4194  1.00271387 39850
GSAT0206 (GALILEO 10)   
1 40890U 15045B   26195.44010403  .00000065  00000+0  00000+0 0  9994
2 40890  54.9389 220.8513 0002159 328.3003  31.7529  1.70473502 67502
TJS-1                   
1 40892U 15046A   26197.61780718 -.00000167  00000+0  00000+0 0  9995
2 40892   0.3974  84.7515 0005085  19.7009 207.4303  1.00271367 39864
GAOFEN-9 01             
1 40894U 15047A   26197.61723630  .00000456  00000+0  62039-4 0  9993
2 40894  97.6264 231.9735 0028365  46.0054 314.3492 14.82936521584558
EXPRESS-AM8             
1 40895U 15048A   26197.40970568 -.00000122  00000+0  00000+0 0  9992
2 40895   0.0201 305.3262 0000246  63.9392  58.4587  1.00271452 39636
LILACSAT-2              
1 40908U 15049K   26197.60976079  .00011192  00000+0  18482-3 0  9998
2 40908  97.4621 235.5839 0008484 137.3533 222.8380 15.52392101600310
COSMOS 2507 (RODNIK-S *)
1 40920U 15050A   26197.61268753  .00000174  00000+0  11884-2 0  9994
2 40920  82.4905  61.3471 0009004 289.8491  70.1617 12.42928087490515
COSMOS 2508 (RODNIK-S *)
1 40921U 15050B   26197.64847918  .00000168  00000+0  11448-2 0  9993
2 40921  82.4857  59.8186 0013889 323.6219  36.3916 12.42915749490504
COSMOS 2509 (RODNIK-S *)
1 40922U 15050C   26197.58904306  .00000224  00000+0  15432-2 0  9992
2 40922  82.4865  59.9610 0014558 341.1685  18.8855 12.42885444490531
ASTROSAT                
1 40930U 15052A   26197.62405881  .00001088  00000+0  50830-4 0  9994
2 40930   5.9974 303.4655 0007378  95.8785 264.2184 14.82553411584205
BEIDOU-3S IGSO-2S       
1 40938U 15053A   26197.14569112 -.00000096  00000+0  00000+0 0  9996
2 40938  49.1773 258.4358 0066263 193.1701 348.1230  1.00252633 39642
SKY MUSTER 1 (NBN1A)    
1 40940U 15054A   26197.58285654  .00000000  00000+0  00000+0 0  9998
2 40940   0.0150  32.0136 0001598  87.3320 165.1439  1.00269853 39551
ARSAT 2                 
1 40941U 15054B   26197.53903057 -.00000235  00000+0  00000+0 0  9999
2 40941   0.0594 269.6574 0001891 198.5049 299.2439  1.00269777 39595
MORELOS 3               
1 40946U 15056A   26197.60391664 -.00000054  00000+0  00000+0 0  9998
2 40946   3.2113  15.8153 0000437 138.6338 244.3069  1.00270629 39584
