OBJECT_NAME,OBJECT_ID,EPOCH,MEAN_MOTION,ECCENTRICITY,INCLINATION,RA_OF_ASC_NODE,ARG_OF_PERICENTER,MEAN_ANOMALY,EPHEMERIS_TYPE,CLASSIFICATION_TYPE,NORAD_CAT_ID,ELEMENT_SET_NO,REV_AT_EPOCH,BSTAR,MEAN_MOTION_DOT,MEAN_MOTION_DDOT
COSMOS 2506,2015-029A,2026-07-16T14:46:27.872832,14.54395758,.00085965,98.0446,237.3256,67.5880,292.6227,0,U,40699,999,58716,.48404242E-4,.163E-5,0
GAOFEN-8,2015-030A,2026-07-16T14:14:08.088288,15.46980913,.00099606,97.6887,32.7498,91.4441,268.7949,0,U,40701,999,61599,.3056047E-3,.15358E-3,0
DMC3-FM1,2015-032A,2026-07-16T15:16:02.705952,14.85766820,.00047615,97.6423,61.6507,331.6359,28.4597,0,U,40715,999,59428,.9753577E-5,.33E-6,0
DMC3-FM2,2015-032B,2026-07-16T14:10:38.660736,14.85776178,.00053602,97.6477,63.2011,337.4483,22.6496,0,U,40716,999,59427,.85419974E-4,.691E-5,0
DMC3-FM3,2015-032C,2026-07-16T14:44:32.376768,14.85764066,.00046521,97.6530,64.9955,340.2705,19.8330,0,U,40717,999,59428,.9215551E-5,.29E-6,0
CARBONITE 1 (CBNT-1),2015-032D,2026-07-16T14:06:40.480992,14.83671172,.00140043,97.6515,14.4260,192.2553,167.8323,0,U,40718,999,59370,.15005155E-3,.119E-4,0
NAVSTAR 74 (USA 262),2015-033A,2026-07-15T03:25:15.578688,2.00554681,.0115357,53.9612,265.9327,30.2860,330.4577,0,U,40730,999,8055,0,-.2E-7,0
METEOSAT-11 (MSG-4),2015-034A,2026-07-16T06:31:18.020640,1.00272196,.00021445,3.2716,70.9243,354.4417,335.8161,0,U,40732,999,750,0,.49E-6,0
STAR ONE C4,2015-034B,2026-07-16T06:08:42.686304,1.00268947,.00013285,0.0315,327.3177,131.4588,217.4651,0,U,40733,999,4030,0,-.275E-5,0
WGS F7 (USA 263),2015-036A,2026-07-16T13:59:38.478336,1.00272243,.00001855,0.0166,44.3739,112.6781,162.2646,0,U,40746,999,4016,0,.7E-7,0
BEIDOU-3S M2S,2015-037A,2026-07-16T07:38:54.068640,1.86231912,.00094396,54.8432,301.0435,256.7967,103.1329,0,U,40748,999,7466,0,-.74E-6,0
BEIDOU-3S M1S,2015-037B,2026-07-15T23:39:18.287712,1.86254817,.00027401,54.8399,301.0417,63.1715,296.8904,0,U,40749,999,7466,0,-.72E-6,0
INTELSAT 34 (IS-34),2015-039A,2026-07-16T11:18:38.708640,1.00269366,.0000386,0.0105,22.5959,348.7753,37.0898,0,U,40874,999,3992,0,-.296E-5,0
EUTELSAT 8 WEST B,2015-039B,2026-07-16T09:51:43.404192,1.00271879,.0003779,0.0635,351.1473,118.6744,324.3560,0,U,40875,999,3995,0,-.76E-6,0
YAOGAN-27,2015-040A,2026-07-16T14:24:55.662336,13.16071967,.00085559,100.1168,182.7091,142.0196,218.1522,0,U,40878,999,52153,-.39597158E-3,-.193E-5,0
GSAT-6,2015-041A,2026-07-16T14:56:44.754144,1.00272997,.000299,1.9925,82.2242,29.9274,128.9928,0,U,40880,999,3989,0,-.172E-5,0
INMARSAT 5-F3,2015-042A,2026-07-16T13:51:38.769984,1.00270763,.00005435,0.0185,45.4787,136.4673,139.9538,0,U,40882,999,3986,0,.39E-6,0
MUOS-4,2015-044A,2026-07-16T14:43:38.636832,1.00271387,.0056508,4.3841,42.4034,3.5106,184.4194,0,U,40887,999,3985,0,-.104E-5,0
GSAT0206 (GALILEO 10),2015-045B,2026-07-14T10:33:44.988192,1.70473502,.00021594,54.9389,220.8513,328.3003,31.7529,0,U,40890,999,6750,0,.65E-6,0
TJS-1,2015-046A,2026-07-16T14:49:38.540352,1.00271367,.00050851,0.3974,84.7515,19.7009,207.4303,0,U,40892,999,3986,0,-.167E-5,0
GAOFEN-9 01,2015-047A,2026-07-16T14:48:49.216320,14.82936521,.00283657,97.6264,231.9735,46.0054,314.3492,0,U,40894,999,58455,.62039297E-4,.456E-5,0
EXPRESS-AM8,2015-048A,2026-07-16T09:49:58.570752,1.00271452,.00002467,0.0201,305.3262,63.9392,58.4587,0,U,40895,999,3963,0,-.122E-5,0
LILACSAT-2,2015-049K,2026-07-16T14:38:03.332256,15.52392101,.00084845,97.4621,235.5839,137.3533,222.8380,0,U,40908,999,60031,.1848233E-3,.11192E-3,0
COSMOS 2507 (RODNIK-S 13),2015-050A,2026-07-16T14:42:16.202592,12.42928087,.00090046,82.4905,61.3471,289.8491,70.1617,0,U,40920,999,49051,.1188446E-2,.174E-5,0
COSMOS 2508 (RODNIK-S 14),2015-050B,2026-07-16T15:33:48.601152,12.42915749,.00138893,82.4857,59.8186,323.6219,36.3916,0,U,40921,999,49050,.11447823E-2,.168E-5,0
COSMOS 2509 (RODNIK-S 15),2015-050C,2026-07-16T14:08:13.320384,12.42885444,.00145584,82.4865,59.9610,341.1685,18.8855,0,U,40922,999,49053,.15431804E-2,.224E-5,0
ASTROSAT,2015-052A,2026-07-16T14:58:38.681184,14.82553411,.00073786,5.9974,303.4655,95.8785,264.2184,0,U,40930,999,58420,.50830079E-4,.1088E-4,0
BEIDOU-3S IGSO-2S,2015-053A,2026-07-16T03:29:47.712768,1.00252633,.00662631,49.1773,258.4358,193.1701,348.1230,0,U,40938,999,3964,0,-.96E-6,0
SKY MUSTER 1 (NBN1A),2015-054A,2026-07-16T13:59:18.805056,1.00269853,.0001598,0.0150,32.0136,87.3320,165.1439,0,U,40940,999,3955,0,0,0
ARSAT 2,2015-054B,2026-07-16T12:56:12.241248,1.00269777,.00018916,0.0594,269.6574,198.5049,299.2439,0,U,40941,999,3959,0,-.235E-5,0
MORELOS 3,2015-056A,2026-07-16T14:29:38.397696,1.00270629,.00004372,3.2113,15.8153,138.6338,244.3069,0,U,40946,999,3958,0,-.54E-6,0
